{"type": "FeatureCollection", "features": [ {"type": "Feature", "properties": {"norad_id": 39634, "name": "SENTINEL-1A", "group": "resource", "lat": -49.45186658740088, "lon": 169.07869487857855, "alt_km": 703.3682386288092, "timestamp": "2025-12-19T14:48:35.901437+00:00", "meta": {"OBJECT_NAME": "SENTINEL-1A", "OBJECT_ID": "2014-016A", "EPOCH": "2025-12-19T05:31:49.258272", "MEAN_MOTION": 14.59201828, "ECCENTRICITY": 0.00012236, "INCLINATION": 98.1796, "RA_OF_ASC_NODE": 358.3764, "ARG_OF_PERICENTER": 82.5905, "MEAN_ANOMALY": 277.5434, "EPHEMERIS_TYPE": 0, "CLASSIFICATION_TYPE": "U", "NORAD_CAT_ID": 39634, "ELEMENT_SET_NO": 999, "REV_AT_EPOCH": 62377, "BSTAR": 3.8518241e-05, "MEAN_MOTION_DOT": 1.36e-06, "MEAN_MOTION_DDOT": 0}, "tle": {"line1": "1 39634U 14016A   25353.23043123  .00000136  00000+0  38518-4 0  9991", "line2": "2 39634  98.1796 358.3764 0001223  82.5905 277.5434 14.59201828623777"}}, "geometry": {"type": "Point", "coordinates": [169.07869487857855, -49.45186658740088]}}, {"type": "Feature", "properties": {"norad_id": 39731, "name": "KAZEOSAT 1", "group": "resource", "lat": 38.42524108806448, "lon": -107.94400152757954, "alt_km": 748.1977856382173, "timestamp": "2025-12-19T14:48:35.901447+00:00", "meta": {"OBJECT_NAME": "KAZEOSAT 1", "OBJECT_ID": "2014-024A", "EPOCH": "2025-12-19T07:29:50.707680", "MEAN_MOTION": 14.42066163, "ECCENTRICITY": 0.00011502, "INCLINATION": 98.3433, "RA_OF_ASC_NODE": 65.0727, "ARG_OF_PERICENTER": 98.6937, "MEAN_ANOMALY": 261.4383, "EPHEMERIS_TYPE": 0, "CLASSIFICATION_TYPE": "U", "NORAD_CAT_ID": 39731, "ELEMENT_SET_NO": 999, "REV_AT_EPOCH": 61263, "BSTAR": 7.1874345e-05, "MEAN_MOTION_DOT": 1.93e-06, "MEAN_MOTION_DDOT": 0}, "tle": {"line1": "1 39731U 14024A   25353.31239245  .00000193  00000+0  71874-4 0  9994", "line2": "2 39731  98.3433  65.0727 0001150  98.6937 261.4383 14.42066163612639"}}, "geometry": {"type": "Point", "coordinates": [-107.94400152757954, 38.42524108806448]}}, {"type": "Feature", "properties": {"norad_id": 39766, "name": "ALOS-2", "group": "resource", "lat": -49.0830684122357, "lon": -100.88053018386391, "alt_km": 638.5104358320705, "timestamp": "2025-12-19T14:48:35.901458+00:00", "meta": {"OBJECT_NAME": "ALOS-2", "OBJECT_ID": "2014-029A", "EPOCH": "2025-12-19T07:16:56.862624", "MEAN_MOTION": 14.79468187, "ECCENTRICITY": 0.00013914, "INCLINATION": 97.9229, "RA_OF_ASC_NODE": 88.0563, "ARG_OF_PERICENTER": 100.6074, "MEAN_ANOMALY": 259.5294, "EPHEMERIS_TYPE": 0, "CLASSIFICATION_TYPE": "U", "NORAD_CAT_ID": 39766, "ELEMENT_SET_NO": 999, "REV_AT_EPOCH": 62498, "BSTAR": 0.00032337768, "MEAN_MOTION_DOT": 2.364e-05, "MEAN_MOTION_DDOT": 0}, "tle": {"line1": "1 39766U 14029A   25353.30343591  .00002364  00000+0  32338-3 0  9999", "line2": "2 39766  97.9229  88.0563 0001391 100.6074 259.5294 14.79468187624983"}}, "geometry": {"type": "Point", "coordinates": [-100.88053018386391, -49.0830684122357]}}, {"type": "Feature", "properties": {"norad_id": 40010, "name": "KAZEOSAT 2", "group": "resource", "lat": -76.93569907841396, "lon": -127.56478083576918, "alt_km": 621.1881383926093, "timestamp": "2025-12-19T14:48:35.901469+00:00", "meta": {"OBJECT_NAME": "KAZEOSAT 2", "OBJECT_ID": "2014-033A", "EPOCH": "2025-12-19T07:04:55.896960", "MEAN_MOTION": 14.85177367, "ECCENTRICITY": 0.00081534, "INCLINATION": 97.5501, "RA_OF_ASC_NODE": 197.2706, "ARG_OF_PERICENTER": 183.5264, "MEAN_ANOMALY": 176.5895, "EPHEMERIS_TYPE": 0, "CLASSIFICATION_TYPE": "U", "NORAD_CAT_ID": 40010, "ELEMENT_SET_NO": 999, "REV_AT_EPOCH": 62225, "BSTAR": 2.8318225e-05, "MEAN_MOTION_DOT": 1.93e-06, "MEAN_MOTION_DDOT": 0}, "tle": {"line1": "1 40010U 14033A   25353.29509140  .00000193  00000+0  28318-4 0  9992", "line2": "2 40010  97.5501 197.2706 0008153 183.5264 176.5895 14.85177367622259"}}, "geometry": {"type": "Point", "coordinates": [-127.56478083576918, -76.93569907841396]}}, {"type": "Feature", "properties": {"norad_id": 40011, "name": "HODOYOSHI-4", "group": "resource", "lat": 64.38676329990919, "lon": 166.1209798817713, "alt_km": 605.6836080143157, "timestamp": "2025-12-19T14:48:35.901479+00:00", "meta": {"OBJECT_NAME": "HODOYOSHI-4", "OBJECT_ID": "2014-033B", "EPOCH": "2025-12-19T06:26:36.544128", "MEAN_MOTION": 14.87502154, "ECCENTRICITY": 0.00236855, "INCLINATION": 97.5406, "RA_OF_ASC_NODE": 181.8297, "ARG_OF_PERICENTER": 178.8106, "MEAN_ANOMALY": 181.3172, "EPHEMERIS_TYPE": 0, "CLASSIFICATION_TYPE": "U", "NORAD_CAT_ID": 40011, "ELEMENT_SET_NO": 999, "REV_AT_EPOCH": 62205, "BSTAR": 0.00012351553, "MEAN_MOTION_DOT": 1.073e-05, "MEAN_MOTION_DDOT": 0}, "tle": {"line1": "1 40011U 14033B   25353.26847852  .00001073  00000+0  12352-3 0  9993", "line2": "2 40011  97.5406 181.8297 0023685 178.8106 181.3172 14.87502154622055"}}, "geometry": {"type": "Point", "coordinates": [166.1209798817713, 64.38676329990919]}}, {"type": "Feature", "properties": {"norad_id": 40013, "name": "DEIMOS-2", "group": "resource", "lat": -1.3064880446195715, "lon": -130.6356260702711, "alt_km": 592.0659182730242, "timestamp": "2025-12-19T14:48:35.901489+00:00", "meta": {"OBJECT_NAME": "DEIMOS-2", "OBJECT_ID": "2014-033D", "EPOCH": "2025-12-19T06:46:24.132000", "MEAN_MOTION": 14.93001033, "ECCENTRICITY": 0.00013781, "INCLINATION": 97.6067, "RA_OF_ASC_NODE": 228.866, "ARG_OF_PERICENTER": 106.2256, "MEAN_ANOMALY": 253.9116, "EPHEMERIS_TYPE": 0, "CLASSIFICATION_TYPE": "U", "NORAD_CAT_ID": 40013, "ELEMENT_SET_NO": 999, "REV_AT_EPOCH": 61087, "BSTAR": 0.00021705565, "MEAN_MOTION_DOT": 2.202e-05, "MEAN_MOTION_DDOT": 0}, "tle": {"line1": "1 40013U 14033D   25353.28222375  .00002202  00000+0  21706-3 0  9992", "line2": "2 40013  97.6067 228.8660 0001378 106.2256 253.9116 14.93001033610871"}}, "geometry": {"type": "Point", "coordinates": [-130.6356260702711, -1.3064880446195715]}}, {"type": "Feature", "properties": {"norad_id": 40015, "name": "HODOYOSHI-3", "group": "resource", "lat": -72.9251372756318, "lon": -175.00678792412566, "alt_km": 610.4187502176819, "timestamp": "2025-12-19T14:48:35.901500+00:00", "meta": {"OBJECT_NAME": "HODOYOSHI-3", "OBJECT_ID": "2014-033F", "EPOCH": "2025-12-18T22:58:21.507168", "MEAN_MOTION": 14.84827132, "ECCENTRICITY": 0.00321499, "INCLINATION": 97.6203, "RA_OF_ASC_NODE": 158.522, "ARG_OF_PERICENTER": 226.7251, "MEAN_ANOMALY": 133.1281, "EPHEMERIS_TYPE": 0, "CLASSIFICATION_TYPE": "U", "NORAD_CAT_ID": 40015, "ELEMENT_SET_NO": 999, "REV_AT_EPOCH": 62087, "BSTAR": 0.00015428862, "MEAN_MOTION_DOT": 1.27e-05, "MEAN_MOTION_DDOT": 0}, "tle": {"line1": "1 40015U 14033F   25352.95719337  .00001270  00000+0  15429-3 0  9995", "line2": "2 40015  97.6203 158.5220 0032149 226.7251 133.1281 14.84827132620878"}}, "geometry": {"type": "Point", "coordinates": [-175.00678792412566, -72.9251372756318]}}, {"type": "Feature", "properties": {"norad_id": 40053, "name": "SPOT 7", "group": "resource", "lat": 46.604452345275405, "lon": -115.81292247430632, "alt_km": 685.9701333664034, "timestamp": "2025-12-19T14:48:35.901511+00:00", "meta": {"OBJECT_NAME": "SPOT 7", "OBJECT_ID": "2014-034A", "EPOCH": "2025-12-19T07:37:43.406400", "MEAN_MOTION": 14.6074215, "ECCENTRICITY": 0.00015254, "INCLINATION": 98.0905, "RA_OF_ASC_NODE": 55.2421, "ARG_OF_PERICENTER": 85.4537, "MEAN_ANOMALY": 274.6838, "EPHEMERIS_TYPE": 0, "CLASSIFICATION_TYPE": "U", "NORAD_CAT_ID": 40053, "ELEMENT_SET_NO": 999, "REV_AT_EPOCH": 61087, "BSTAR": 0.00011354752, "MEAN_MOTION_DOT": 5.08e-06, "MEAN_MOTION_DDOT": 0}, "tle": {"line1": "1 40053U 14034A   25353.31786350  .00000508  00000+0  11355-3 0  9995", "line2": "2 40053  98.0905  55.2421 0001525  85.4537 274.6838 14.60742150610879"}}, "geometry": {"type": "Point", "coordinates": [-115.81292247430632, 46.604452345275405]}}, {"type": "Feature", "properties": {"norad_id": 40072, "name": "SKYSAT-B", "group": "resource", "lat": 5.299881638671462, "lon": -63.095310933487646, "alt_km": 611.1205518870083, "timestamp": "2025-12-19T14:48:35.901521+00:00", "meta": {"OBJECT_NAME": "SKYSAT-B", "OBJECT_ID": "2014-037D", "EPOCH": "2025-12-18T19:24:39.195072", "MEAN_MOTION": 14.87348069, "ECCENTRICITY": 0.00065151, "INCLINATION": 98.3619, "RA_OF_ASC_NODE": 296.8355, "ARG_OF_PERICENTER": 133.0045, "MEAN_ANOMALY": 227.1716, "EPHEMERIS_TYPE": 0, "CLASSIFICATION_TYPE": "U", "NORAD_CAT_ID": 40072, "ELEMENT_SET_NO": 999, "REV_AT_EPOCH": 61914, "BSTAR": 0.00015223593, "MEAN_MOTION_DOT": 1.314e-05, "MEAN_MOTION_DDOT": 0}, "tle": {"line1": "1 40072U 14037D   25352.80878698  .00001314  00000+0  15224-3 0  9994", "line2": "2 40072  98.3619 296.8355 0006515 133.0045 227.1716 14.87348069619149"}}, "geometry": {"type": "Point", "coordinates": [-63.095310933487646, 5.299881638671462]}}, {"type": "Feature", "properties": {"norad_id": 40115, "name": "WORLDVIEW-3 (WV-3)", "group": "resource", "lat": -25.544972298819957, "lon": -117.9821435678778, "alt_km": 619.8739390308447, "timestamp": "2025-12-19T14:48:35.901532+00:00", "meta": {"OBJECT_NAME": "WORLDVIEW-3 (WV-3)", "OBJECT_ID": "2014-048A", "EPOCH": "2025-12-19T05:47:55.924800", "MEAN_MOTION": 14.84661803, "ECCENTRICITY": 0.00017326, "INCLINATION": 97.8773, "RA_OF_ASC_NODE": 65.441, "ARG_OF_PERICENTER": 138.3296, "MEAN_ANOMALY": 221.8051, "EPHEMERIS_TYPE": 0, "CLASSIFICATION_TYPE": "U", "NORAD_CAT_ID": 40115, "ELEMENT_SET_NO": 999, "REV_AT_EPOCH": 61520, "BSTAR": 0.00010007721, "MEAN_MOTION_DOT": 7.93e-06, "MEAN_MOTION_DDOT": 0}, "tle": {"line1": "1 40115U 14048A   25353.24161950  .00000793  00000+0  10008-3 0  9994", "line2": "2 40115  97.8773  65.4410 0001732 138.3296 221.8051 14.84661803615203"}}, "geometry": {"type": "Point", "coordinates": [-117.9821435678778, -25.544972298819957]}}]}